NORAD_CAT_ID,OBJECT_NAME,OBJECT_TYPE,EPOCH,MEAN_MOTION,ECCENTRICITY,INCLINATION,RA_OF_ASC_NODE,ARG_OF_PERICENTER,MEAN_ANOMALY,BSTAR,MEAN_MOTION_DOT,MEAN_MOTION_DDOT,TLE_LINE0,TLE_LINE1,TLE_LINE2,SEMIMAJOR_AXIS,PERIOD,APOGEE,PERIGEE,DECAYED
49175.0,STARLINK-3087,PAYLOAD,2023-07-20 21:44:04,14.98331824,0.0004018,69.9992,181.9833,267.0383,93.0316,8.7808e-05,9.55e-06,0.0,0 STARLINK-3087,1 49175U 21082AX  23201.90560541  .00000955  00000-0  87808-4 0  9991,2 49175  69.9992 181.9833 0004018 267.0383  93.0316 14.98331824102252,6950.187,96.107,574.845,569.26,0.0
49175.0,STARLINK-3087,PAYLOAD,2023-07-24 07:26:55,14.98330486,0.0003863,69.9995,173.399,263.2764,96.7956,5.0591e-05,5.11e-06,0.0,0 STARLINK-3087,1 49175U 21082AX  23205.31036477  .00000511  00000-0  50591-4 0  9993,2 49175  69.9995 173.3990 0003863 263.2764  96.7956 14.98330486102761,6950.191,96.107,574.741,569.372,0.0
49175.0,STARLINK-3087,PAYLOAD,2023-07-25 07:28:56,14.98330906,0.00037,70.0,170.8734,266.4101,93.6635,2.3155e-05,1.83e-06,0.0,0 STARLINK-3087,1 49175U 21082AX  23206.31176677  .00000183  00000-0  23155-4 0  9992,2 49175  70.0000 170.8734 0003700 266.4101  93.6635 14.98330906102913,6950.19,96.107,574.627,569.484,0.0
49175.0,STARLINK-3087,PAYLOAD,2023-07-26 02:42:33,14.98330696,0.0003725,69.9995,168.8548,264.1333,95.9402,3.9174e-05,3.74e-06,0.0,0 STARLINK-3087,1 49175U 21082AX  23207.11288666  .00000374  00000-0  39174-4 0  9993,2 49175  69.9995 168.8548 0003725 264.1333  95.9402 14.98330696103039,6950.191,96.107,574.645,569.467,0.0
49175.0,STARLINK-3087,PAYLOAD,2023-07-26 07:30:57,14.98334901,0.0003748,69.9994,168.3506,262.5438,97.5295,8.3572e-05,9.04e-06,0.0,0 STARLINK-3087,1 49175U 21082AX  23207.31316238  .00000904  00000-0  83572-4 0  9992,2 49175  69.9994 168.3506 0003748 262.5438  97.5295 14.98334901103064,6950.178,96.107,574.648,569.438,0.0
49175.0,STARLINK-3087,PAYLOAD,2023-07-26 23:32:17,14.98335954,0.000375,69.9995,166.6675,261.0604,99.0131,9.0118e-05,9.83e-06,0.0,0 STARLINK-3087,1 49175U 21082AX  23207.98075987  .00000983  00000-0  90118-4 0  9999,2 49175  69.9995 166.6675 0003750 261.0604  99.0131 14.98335954103161,6950.174,96.107,574.646,569.433,0.0
49175.0,STARLINK-3087,PAYLOAD,2023-07-27 13:57:30,14.98333886,0.0003763,69.9994,165.1533,260.7031,99.3703,7.5964e-05,8.14e-06,0.0,0 STARLINK-3087,1 49175U 21082AX  23208.58159952  .00000814  00000-0  75964-4 0  9996,2 49175  69.9994 165.1533 0003763 260.7031  99.3703 14.98333886103251,6950.181,96.107,574.661,569.431,0.0
49175.0,STARLINK-3087,PAYLOAD,2023-07-27 21:58:11,14.98329667,0.0003283,69.9996,164.3118,257.9811,102.098,-2.702e-05,-4.15e-06,0.0,0 STARLINK-3087,1 49175U 21082AX  23208.91540629 -.00000415  00000-0 -27020-4 0  9997,2 49175  69.9996 164.3118 0003283 257.9811 102.0980 14.98329667103301,6950.194,96.107,574.341,569.777,0.0
49175.0,STARLINK-3087,PAYLOAD,2023-07-28 01:10:27,14.9832679,0.0003345,70.0004,163.9758,255.7168,104.362,-1.5003e-05,-2.72e-06,0.0,0 STARLINK-3087,1 49175U 21082AX  23209.04892733 -.00000272  00000-0 -15003-4 0  9997,2 49175  70.0004 163.9758 0003345 255.7168 104.3620 14.98326790103321,6950.203,96.107,574.393,569.743,0.0
49175.0,STARLINK-3087,PAYLOAD,2023-07-28 07:34:59,14.9832525,0.0003595,69.9998,163.3009,265.921,94.1538,-6.1714e-05,-8.29e-06,0.0,0 STARLINK-3087,1 49175U 21082AX  23209.31597077 -.00000829  00000-0 -61714-4 0  9998,2 49175  69.9998 163.3009 0003595 265.9210  94.1538 14.98325250103369,6950.208,96.107,574.571,569.574,0.0
49175.0,STARLINK-3087,PAYLOAD,2023-07-29 02:48:36,14.98335001,0.0003463,69.9999,161.2802,265.6518,94.4246,-4.257e-05,-6.01e-06,0.0,0 STARLINK-3087,1 49175U 21082AX  23210.11708458 -.00000601  00000-0 -42570-4 0  9992,2 49175  69.9999 161.2802 0003463 265.6518  94.4246 14.98335001103487,6950.177,96.107,574.449,569.636,0.0
49175.0,STARLINK-3087,PAYLOAD,2023-07-29 14:01:31,14.98353779,0.0003593,69.9998,160.102,266.7081,93.3667,-0.00029565,-3.621e-05,0.0,0 STARLINK-3087,1 49175U 21082AX  23210.58439611 -.00003621  00000-0 -29565-3 0  9998,2 49175  69.9998 160.1020 0003593 266.7081  93.3667 14.98353779103552,6950.119,96.105,574.482,569.487,0.0
49175.0,STARLINK-3087,PAYLOAD,2023-07-30 02:50:37,14.98326943,0.0003461,69.9998,158.756,269.1899,90.8863,0.00010191,1.123e-05,0.0,0 STARLINK-3087,1 49175U 21082AX  23211.11848656  .00001123  00000-0  10191-3 0  9999,2 49175  69.9998 158.7560 0003461 269.1899  90.8863 14.98326943103634,6950.202,96.107,574.473,569.662,0.0
49175.0,STARLINK-3087,PAYLOAD,2023-07-31 02:52:38,14.98331241,0.0003485,70.0001,156.2313,270.4793,89.5967,3.8852e-05,3.71e-06,0.0,0 STARLINK-3087,1 49175U 21082AX  23212.11988579  .00000371  00000-0  38852-4 0  9998,2 49175  70.0001 156.2313 0003485 270.4793  89.5967 14.98331241103788,6950.189,96.107,574.476,569.632,0.0
49175.0,STARLINK-3087,PAYLOAD,2023-07-31 09:17:09,14.98337718,0.000337,70.0,155.5581,268.8881,91.1892,7.3516e-05,7.84e-06,0.0,0 STARLINK-3087,1 49175U 21082AX  23212.38692007  .00000784  00000-0  73516-4 0  9999,2 49175  70.0000 155.5581 0003370 268.8881  91.1892 14.98337718103824,6950.169,96.107,574.376,569.692,0.0
49175.0,STARLINK-3087,PAYLOAD,2023-07-31 18:53:58,14.98328839,0.0003294,70.0001,154.5469,270.0955,89.9827,-3.7835e-05,-5.44e-06,0.0,0 STARLINK-3087,1 49175U 21082AX  23212.78748820 -.00000544  00000-0 -37835-4 0  9998,2 49175  70.0001 154.5469 0003294 270.0955  89.9827 14.98328839103884,6950.196,96.107,574.351,569.772,0.0
49175.0,STARLINK-3087,PAYLOAD,2023-08-01 04:30:45,14.98351907,0.0003325,70.0001,153.5378,269.9997,90.0781,0.00023266,2.686e-05,0.0,0 STARLINK-3087,1 49175U 21082AX  23213.18802545  .00002686  00000-0  23266-3 0  9997,2 49175  70.0001 153.5378 0003325 269.9997  90.0781 14.98351907103941,6950.125,96.106,574.301,569.679,0.0
49175.0,STARLINK-3087,PAYLOAD,2023-08-02 02:56:40,14.98324885,0.0002906,70.0002,151.1816,264.5373,95.5455,-3.7785e-05,-5.44e-06,0.0,0 STARLINK-3087,1 49175U 21082AX  23214.12268763 -.00000544  00000-0 -37785-4 0  9995,2 49175  70.0002 151.1816 0002906 264.5373  95.5455 14.98324885104085,6950.209,96.107,574.093,570.054,0.0
49175.0,STARLINK-3087,PAYLOAD,2023-08-03 02:58:40,14.98336571,0.0003239,69.9998,148.6568,271.1381,88.9407,0.00011019,1.222e-05,0.0,0 STARLINK-3087,1 49175U 21082AX  23215.12407717  .00001222  00000-0  11019-3 0  9993,2 49175  69.9998 148.6568 0003239 271.1381  88.9407 14.98336571104239,6950.173,96.107,574.289,569.786,0.0
49175.0,STARLINK-3087,PAYLOAD,2023-08-04 03:00:42,14.98317855,0.0002817,70.0005,146.1334,264.4738,95.6099,3.8114e-05,3.62e-06,0.0,0 STARLINK-3087,1 49175U 21082AX  23216.12549218  .00000362  00000-0  38114-4 0  9997,2 49175  70.0005 146.1334 0002817 264.4738  95.6099 14.98317855104389,6950.23,96.108,574.053,570.138,0.0
49175.0,STARLINK-3087,PAYLOAD,2023-08-05 03:02:42,14.98337386,0.0002769,70.0005,143.6085,259.8114,100.2733,3.6784e-05,3.46e-06,0.0,0 STARLINK-3087,1 49175U 21082AX  23217.12688075  .00000346  00000-0  36784-4 0  9996,2 49175  70.0005 143.6085 0002769 259.8114 100.2733 14.98337386104532,6950.17,96.107,573.96,570.111,0.0
49175.0,STARLINK-3087,PAYLOAD,2023-08-06 04:40:51,14.98334056,0.0002921,70.0002,140.9146,265.2858,94.7967,0.0001716,1.955e-05,0.0,0 STARLINK-3087,1 49175U 21082AX  23218.19503719  .00001955  00000-0  17160-3 0  9998,2 49175  70.0002 140.9146 0002921 265.2858  94.7967 14.98334056104697,6950.18,96.107,574.075,570.015,0.0
49175.0,STARLINK-3087,PAYLOAD,2023-08-06 12:41:32,14.98326719,0.0002978,69.9994,140.0717,267.4811,92.6007,3.7388e-05,3.53e-06,0.0,0 STARLINK-3087,1 49175U 21082AX  23218.52884527  .00000353  00000-0  37388-4 0  9990,2 49175  69.9994 140.0717 0002978 267.4811  92.6007 14.98326719104749,6950.203,96.107,574.138,569.998,0.0
49175.0,STARLINK-3087,PAYLOAD,2023-08-07 01:30:37,14.98324536,0.0002801,69.9997,138.7256,268.5225,91.5613,-0.00016687,-2.083e-05,0.0,0 STARLINK-3087,1 49175U 21082AX  23219.06293332 -.00002083  00000-0 -16687-3 0  9990,2 49175  69.9997 138.7256 0002801 268.5225  91.5613 14.98324536104825,6950.21,96.107,574.022,570.128,0.0
49175.0,STARLINK-3087,PAYLOAD,2023-08-07 19:08:05,14.98332673,0.0003096,69.9997,136.8746,268.9944,91.086,-2.1009e-05,-3.44e-06,0.0,0 STARLINK-3087,1 49175U 21082AX  23219.79728637 -.00000344  00000-0 -21009-4 0  9994,2 49175  69.9997 136.8746 0003096 268.9944  91.0860 14.98332673104939,6950.185,96.107,574.201,569.898,0.0
49175.0,STARLINK-3087,PAYLOAD,2023-08-08 04:44:53,14.98340753,0.0003013,69.9999,135.8645,269.2858,90.7956,8.2038e-05,8.86e-06,0.0,0 STARLINK-3087,1 49175U 21082AX  23220.19783839  .00000886  00000-0  82038-4 0  9993,2 49175  69.9999 135.8645 0003013 269.2858  90.7956 14.98340753104991,6950.16,96.106,574.119,569.931,0.0
49175.0,STARLINK-3087,PAYLOAD,2023-08-08 17:33:58,14.9832619,0.000295,70.0,134.518,271.102,88.9801,0.00021661,2.492e-05,0.0,0 STARLINK-3087,1 49175U 21082AX  23220.73192348  .00002492  00000-0  21661-3 0  9991,2 49175  70.0000 134.5180 0002950 271.1020  88.9801 14.98326190105076,6950.205,96.107,574.12,570.019,0.0
49175.0,STARLINK-3087,PAYLOAD,2023-08-09 04:46:53,14.98351491,0.0002756,70.0002,133.3399,274.4407,85.6438,-3.3944e-05,-4.98e-06,0.0,0 STARLINK-3087,1 49175U 21082AX  23221.19923224 -.00000498  00000-0 -33944-4 0  9991,2 49175  70.0002 133.3399 0002756 274.4407  85.6438 14.98351491105146,6950.126,96.106,573.907,570.076,0.0
49175.0,STARLINK-3087,PAYLOAD,2023-08-09 22:24:23,14.98332384,0.0002728,70.0006,131.489,268.0554,92.0293,-3.1002e-05,-4.63e-06,0.0,0 STARLINK-3087,1 49175U 21082AX  23221.93360454 -.00000463  00000-0 -31002-4 0  9998,2 49175  70.0006 131.4890 0002728 268.0554  92.0293 14.98332384105259,6950.186,96.107,573.947,570.155,0.0
49175.0,STARLINK-3087,PAYLOAD,2023-08-11 00:02:32,14.98335036,0.0002483,70.0011,128.7955,265.8513,94.2362,-3.6449e-05,-5.28e-06,0.0,0 STARLINK-3087,1 49175U 21082AX  23223.00176005 -.00000528  00000-0 -36449-4 0  9997,2 49175  70.0011 128.7955 0002483 265.8513  94.2362 14.98335036105410,6950.177,96.107,573.768,570.317,0.0
